[{"OBJECT_NAME":"SITRO-TD-4","OBJECT_ID":"2025-313T","EPOCH":"2026-03-09T22:34:21.722880","MEAN_MOTION":15.21536332,"ECCENTRICITY":0.00145785,"INCLINATION":97.4001,"RA_OF_ASC_NODE":145.1931,"ARG_OF_PERICENTER":358.8539,"MEAN_ANOMALY":1.2661,"EPHEMERIS_TYPE":0,"CLASSIFICATION_TYPE":"U","NORAD_CAT_ID":67265,"ELEMENT_SET_NO":999,"REV_AT_EPOCH":1085,"BSTAR":0.00050945291,"MEAN_MOTION_DOT":0.00011446,"MEAN_MOTION_DDOT":0},{"OBJECT_NAME":"SITRO-TD-3","OBJECT_ID":"2025-313Y","EPOCH":"2026-03-09T22:34:33.372192","MEAN_MOTION":15.21559953,"ECCENTRICITY":0.00145757,"INCLINATION":97.4011,"RA_OF_ASC_NODE":145.2018,"ARG_OF_PERICENTER":358.2913,"MEAN_ANOMALY":1.827,"EPHEMERIS_TYPE":0,"CLASSIFICATION_TYPE":"U","NORAD_CAT_ID":67270,"ELEMENT_SET_NO":999,"REV_AT_EPOCH":1085,"BSTAR":0.00053243574,"MEAN_MOTION_DOT":0.00011975,"MEAN_MOTION_DDOT":0}]
